{"fetched_at":"2026-07-18T17:30:02.751Z","source":"https://celestrak.org/NORAD/elements/gp.php?NAME=KINEIS&FORMAT=JSON","constellation":"kineis","records":[{"OBJECT_NAME":"KINEIS-2D","OBJECT_ID":"2025-028C","EPOCH":"2026-07-18T02:33:20.932992","CLASSIFICATION_TYPE":"U","MEAN_MOTION":14.75773873,"ECCENTRICITY":0.00047807,"INCLINATION":97.927,"RA_OF_ASC_NODE":250.9558,"ARG_OF_PERICENTER":103.3817,"MEAN_ANOMALY":256.7926,"EPHEMERIS_TYPE":0,"NORAD_CAT_ID":62930,"ELEMENT_SET_NO":999,"REV_AT_EPOCH":7727,"BSTAR":0.0001171229,"MEAN_MOTION_DOT":0.00000752,"MEAN_MOTION_DDOT":0},{"OBJECT_NAME":"KINEIS-2E","OBJECT_ID":"2025-028D","EPOCH":"2026-07-18T02:47:01.523040","CLASSIFICATION_TYPE":"U","MEAN_MOTION":14.77091816,"ECCENTRICITY":0.0002113,"INCLINATION":97.8939,"RA_OF_ASC_NODE":250.0895,"ARG_OF_PERICENTER":92.6011,"MEAN_ANOMALY":267.5441,"EPHEMERIS_TYPE":0,"NORAD_CAT_ID":62931,"ELEMENT_SET_NO":999,"REV_AT_EPOCH":7734,"BSTAR":0.000097981979,"MEAN_MOTION_DOT":0.00000642,"MEAN_MOTION_DDOT":0},{"OBJECT_NAME":"KINEIS-2A","OBJECT_ID":"2025-028E","EPOCH":"2026-07-18T03:07:03.671040","CLASSIFICATION_TYPE":"U","MEAN_MOTION":14.73454708,"ECCENTRICITY":0.00059094,"INCLINATION":98.1286,"RA_OF_ASC_NODE":254.5645,"ARG_OF_PERICENTER":76.8192,"MEAN_ANOMALY":283.3675,"EPHEMERIS_TYPE":0,"NORAD_CAT_ID":62932,"ELEMENT_SET_NO":999,"REV_AT_EPOCH":7716,"BSTAR":0.00010108503,"MEAN_MOTION_DOT":0.00000605,"MEAN_MOTION_DDOT":0},{"OBJECT_NAME":"KINEIS-2B","OBJECT_ID":"2025-028G","EPOCH":"2026-07-18T02:34:29.478432","CLASSIFICATION_TYPE":"U","MEAN_MOTION":14.73455122,"ECCENTRICITY":0.00047372,"INCLINATION":97.9653,"RA_OF_ASC_NODE":251.4067,"ARG_OF_PERICENTER":67.2246,"MEAN_ANOMALY":292.9463,"EPHEMERIS_TYPE":0,"NORAD_CAT_ID":62934,"ELEMENT_SET_NO":999,"REV_AT_EPOCH":7721,"BSTAR":0.000097863902,"MEAN_MOTION_DOT":0.00000586,"MEAN_MOTION_DDOT":0},{"OBJECT_NAME":"KINEIS-4E","OBJECT_ID":"2025-056A","EPOCH":"2026-07-18T07:23:17.198016","CLASSIFICATION_TYPE":"U","MEAN_MOTION":14.72307674,"ECCENTRICITY":0.00029048,"INCLINATION":97.9071,"RA_OF_ASC_NODE":322.345,"ARG_OF_PERICENTER":80.8931,"MEAN_ANOMALY":279.2606,"EPHEMERIS_TYPE":0,"NORAD_CAT_ID":63300,"ELEMENT_SET_NO":999,"REV_AT_EPOCH":7170,"BSTAR":0.00011770642,"MEAN_MOTION_DOT":0.00000696,"MEAN_MOTION_DDOT":0},{"OBJECT_NAME":"KINEIS-4C","OBJECT_ID":"2025-056B","EPOCH":"2026-07-18T07:41:02.914368","CLASSIFICATION_TYPE":"U","MEAN_MOTION":14.72329642,"ECCENTRICITY":0.00030333,"INCLINATION":97.9125,"RA_OF_ASC_NODE":322.6081,"ARG_OF_PERICENTER":200.4242,"MEAN_ANOMALY":159.6845,"EPHEMERIS_TYPE":0,"NORAD_CAT_ID":63301,"ELEMENT_SET_NO":999,"REV_AT_EPOCH":7171,"BSTAR":0.00012110181,"MEAN_MOTION_DOT":0.00000717,"MEAN_MOTION_DDOT":0},{"OBJECT_NAME":"KINEIS-4D","OBJECT_ID":"2025-056C","EPOCH":"2026-07-17T23:36:13.519584","CLASSIFICATION_TYPE":"U","MEAN_MOTION":14.72222228,"ECCENTRICITY":0.00016367,"INCLINATION":97.9046,"RA_OF_ASC_NODE":322.251,"ARG_OF_PERICENTER":201.7523,"MEAN_ANOMALY":158.3615,"EPHEMERIS_TYPE":0,"NORAD_CAT_ID":63302,"ELEMENT_SET_NO":999,"REV_AT_EPOCH":7166,"BSTAR":0.00012062561,"MEAN_MOTION_DOT":0.00000713,"MEAN_MOTION_DDOT":0},{"OBJECT_NAME":"KINEIS-4A","OBJECT_ID":"2025-056D","EPOCH":"2026-07-18T06:58:42.020832","CLASSIFICATION_TYPE":"U","MEAN_MOTION":14.72288707,"ECCENTRICITY":0.00022966,"INCLINATION":97.9139,"RA_OF_ASC_NODE":322.5045,"ARG_OF_PERICENTER":147.3264,"MEAN_ANOMALY":212.8086,"EPHEMERIS_TYPE":0,"NORAD_CAT_ID":63303,"ELEMENT_SET_NO":999,"REV_AT_EPOCH":7170,"BSTAR":0.00012065624,"MEAN_MOTION_DOT":0.00000714,"MEAN_MOTION_DDOT":0},{"OBJECT_NAME":"KINEIS-4B","OBJECT_ID":"2025-056E","EPOCH":"2026-07-18T08:11:34.851840","CLASSIFICATION_TYPE":"U","MEAN_MOTION":14.72333501,"ECCENTRICITY":0.00055629,"INCLINATION":97.9151,"RA_OF_ASC_NODE":322.6117,"ARG_OF_PERICENTER":182.8227,"MEAN_ANOMALY":177.2951,"EPHEMERIS_TYPE":0,"NORAD_CAT_ID":63304,"ELEMENT_SET_NO":999,"REV_AT_EPOCH":7170,"BSTAR":0.00011976294,"MEAN_MOTION_DOT":0.00000709,"MEAN_MOTION_DDOT":0}]}
