KINEIS-2D               
1 62930U 25028C   26199.10649228  .00000752  00000+0  11712-3 0  9994
2 62930  97.9270 250.9558 0004780 103.3817 256.7926 14.75773873 77274
KINEIS-2E               
1 62931U 25028D   26199.11598985  .00000642  00000+0  97982-4 0  9991
2 62931  97.8939 250.0895 0002113  92.6011 267.5441 14.77091816 77347
KINEIS-2A               
1 62932U 25028E   26199.12990360  .00000605  00000+0  10109-3 0  9990
2 62932  98.1286 254.5645 0005909  76.8192 283.3675 14.73454708 77163
KINEIS-2B               
1 62934U 25028G   26199.10728563  .00000586  00000+0  97864-4 0  9996
2 62934  97.9653 251.4067 0004737  67.2246 292.9463 14.73455122 77214
KINEIS-4E               
1 63300U 25056A   26199.30783794  .00000696  00000+0  11771-3 0  9998
2 63300  97.9071 322.3450 0002904  80.8931 279.2606 14.72307674 71708
KINEIS-4C               
1 63301U 25056B   26199.32017262  .00000717  00000+0  12110-3 0  9993
2 63301  97.9125 322.6081 0003033 200.4242 159.6845 14.72329642 71717
KINEIS-4D               
1 63302U 25056C   26198.98348981  .00000713  00000+0  12063-3 0  9993
2 63302  97.9046 322.2510 0001636 201.7523 158.3615 14.72222228 71663
KINEIS-4A               
1 63303U 25056D   26199.29076413  .00000714  00000+0  12066-3 0  9991
2 63303  97.9139 322.5045 0002296 147.3264 212.8086 14.72288707 71700
KINEIS-4B               
1 63304U 25056E   26199.34137560  .00000709  00000+0  11976-3 0  9992
2 63304  97.9151 322.6117 0005562 182.8227 177.2951 14.72333501 71706
